{
  "type": "FeatureCollection",
  "features": [
    {
      "type": "Feature",
      "properties": {
        "norad_id": 66820,
        "name": "KOMPSAT-7",
        "group": "last-30-days",
        "lat": 48.87673690549106,
        "lon": -78.51669355271935,
        "alt_km": 574.0851914747454,
        "timestamp": "2025-12-10T09:57:43.490494+00:00",
        "meta_object_name": "KOMPSAT-7",
        "meta_object_id": "2025-279A",
        "meta_epoch": "2025-12-09T14:30:32.266368",
        "meta_mean_motion": 14.98378319,
        "meta_eccentricity": 0.00094634,
        "meta_inclination": 97.6403,
        "meta_ra_of_asc_node": 289.534,
        "meta_arg_of_pericenter": 231.7406,
        "meta_mean_anomaly": 128.2966,
        "meta_ephemeris_type": 0,
        "meta_classification_type": "U",
        "meta_norad_cat_id": 66820,
        "meta_element_set_no": 999,
        "meta_rev_at_epoch": 118,
        "meta_bstar": 0.00038973743,
        "meta_mean_motion_dot": 4.593e-05,
        "meta_mean_motion_ddot": 0,
        "tle_line1": "1 66820U 25279A   25343.60454012  .00004593  00000+0  38974-3 0  9990",
        "tle_line2": "2 66820  97.6403 289.5340 0009463 231.7406 128.2966 14.98378319  1186"
      },
      "geometry": {
        "type": "Point",
        "coordinates": [
          -78.51669355271935,
          48.87673690549106
        ]
      }
    },
    {
      "type": "Feature",
      "properties": {
        "norad_id": 66877,
        "name": "ZQ-3 R/B",
        "group": "last-30-days",
        "lat": 11.714967724513532,
        "lon": 74.29157308035602,
        "alt_km": 1239.1326816712153,
        "timestamp": "2025-12-10T09:57:43.490506+00:00",
        "meta_object_name": "ZQ-3 R/B",
        "meta_object_id": "2025-282A",
        "meta_epoch": "2025-12-09T14:03:36.956160",
        "meta_mean_motion": 14.50884242,
        "meta_eccentricity": 0.0814789,
        "meta_inclination": 56.9538,
        "meta_ra_of_asc_node": 69.6744,
        "meta_arg_of_pericenter": 214.5064,
        "meta_mean_anomaly": 140.0407,
        "meta_ephemeris_type": 0,
        "meta_classification_type": "U",
        "meta_norad_cat_id": 66877,
        "meta_element_set_no": 999,
        "meta_rev_at_epoch": 93,
        "meta_bstar": 0.00027722,
        "meta_mean_motion_dot": 0.01312735,
        "meta_mean_motion_ddot": 7.3328e-06,
        "tle_line1": "1 66877U 25282A   25343.58584440  .01312735  73328-5  27722-3 0  9991",
        "tle_line2": "2 66877  56.9538  69.6744 0814789 214.5064 140.0407 14.50884242   933"
      },
      "geometry": {
        "type": "Point",
        "coordinates": [
          74.29157308035602,
          11.714967724513532
        ]
      }
    },
    {
      "type": "Feature",
      "properties": {
        "norad_id": 66906,
        "name": "1998-067XS",
        "group": "last-30-days",
        "lat": 26.163642770246472,
        "lon": 176.8517147266908,
        "alt_km": 414.89448619127506,
        "timestamp": "2025-12-10T09:57:43.490517+00:00",
        "meta_object_name": "1998-067XS",
        "meta_object_id": "1998-067XS",
        "meta_epoch": "2025-12-10T00:31:58.658880",
        "meta_mean_motion": 15.50350034,
        "meta_eccentricity": 0.0003912,
        "meta_inclination": 51.6303,
        "meta_ra_of_asc_node": 155.8936,
        "meta_arg_of_pericenter": 190.7132,
        "meta_mean_anomaly": 169.3774,
        "meta_ephemeris_type": 0,
        "meta_classification_type": "U",
        "meta_norad_cat_id": 66906,
        "meta_element_set_no": 999,
        "meta_rev_at_epoch": 119,
        "meta_bstar": 0.00063424,
        "meta_mean_motion_dot": 0.00036365,
        "meta_mean_motion_ddot": 0,
        "tle_line1": "1 66906U 98067XS  25344.02220670  .00036365  00000+0  63424-3 0  9998",
        "tle_line2": "2 66906  51.6303 155.8936 0003912 190.7132 169.3774 15.50350034  1196"
      },
      "geometry": {
        "type": "Point",
        "coordinates": [
          176.8517147266908,
          26.163642770246472
        ]
      }
    },
    {
      "type": "Feature",
      "properties": {
        "norad_id": 66907,
        "name": "1998-067XT",
        "group": "last-30-days",
        "lat": 32.36639174665412,
        "lon": -175.93199477143278,
        "alt_km": 412.79755704275794,
        "timestamp": "2025-12-10T09:57:43.490529+00:00",
        "meta_object_name": "1998-067XT",
        "meta_object_id": "1998-067XT",
        "meta_epoch": "2025-12-09T12:07:37.114752",
        "meta_mean_motion": 15.50864429,
        "meta_eccentricity": 0.00048036,
        "meta_inclination": 51.6307,
        "meta_ra_of_asc_node": 158.4423,
        "meta_arg_of_pericenter": 208.5081,
        "meta_mean_anomaly": 151.5646,
        "meta_ephemeris_type": 0,
        "meta_classification_type": "U",
        "meta_norad_cat_id": 66907,
        "meta_element_set_no": 999,
        "meta_rev_at_epoch": 111,
        "meta_bstar": 0.0012921241,
        "meta_mean_motion_dot": 0.00076342,
        "meta_mean_motion_ddot": 0,
        "tle_line1": "1 66907U 98067XT  25343.50529068  .00076342  00000+0  12921-2 0  9998",
        "tle_line2": "2 66907  51.6307 158.4423 0004803 208.5081 151.5646 15.50864429  1113"
      },
      "geometry": {
        "type": "Point",
        "coordinates": [
          -175.93199477143278,
          32.36639174665412
        ]
      }
    },
    {
      "type": "Feature",
      "properties": {
        "norad_id": 66908,
        "name": "1998-067XU",
        "group": "last-30-days",
        "lat": 33.243064286800184,
        "lon": -174.7905305551787,
        "alt_km": 412.59175622014845,
        "timestamp": "2025-12-10T09:57:43.490542+00:00",
        "meta_object_name": "1998-067XU",
        "meta_object_id": "1998-067XU",
        "meta_epoch": "2025-12-09T22:56:49.308000",
        "meta_mean_motion": 15.50986187,
        "meta_eccentricity": 0.0004997,
        "meta_inclination": 51.6304,
        "meta_ra_of_asc_node": 156.202,
        "meta_arg_of_pericenter": 209.1255,
        "meta_mean_anomaly": 150.9456,
        "meta_ephemeris_type": 0,
        "meta_classification_type": "U",
        "meta_norad_cat_id": 66908,
        "meta_element_set_no": 999,
        "meta_rev_at_epoch": 118,
        "meta_bstar": 0.0013761,
        "meta_mean_motion_dot": 0.00081745,
        "meta_mean_motion_ddot": 0,
        "tle_line1": "1 66908U 98067XU  25343.95612625  .00081745  00000+0  13761-2 0  9996",
        "tle_line2": "2 66908  51.6304 156.2020 0004997 209.1255 150.9456 15.50986187  1189"
      },
      "geometry": {
        "type": "Point",
        "coordinates": [
          -174.7905305551787,
          33.243064286800184
        ]
      }
    },
    {
      "type": "Feature",
      "properties": {
        "norad_id": 66909,
        "name": "SILVERSAT",
        "group": "last-30-days",
        "lat": 34.05371359723144,
        "lon": -173.70246709603106,
        "alt_km": 412.08958082862773,
        "timestamp": "2025-12-10T09:57:43.490552+00:00",
        "meta_object_name": "SILVERSAT",
        "meta_object_id": "1998-067XV",
        "meta_epoch": "2025-12-09T19:50:59.695584",
        "meta_mean_motion": 15.51056405,
        "meta_eccentricity": 0.0004877,
        "meta_inclination": 51.6304,
        "meta_ra_of_asc_node": 156.8402,
        "meta_arg_of_pericenter": 210.6195,
        "meta_mean_anomaly": 149.451,
        "meta_ephemeris_type": 0,
        "meta_classification_type": "U",
        "meta_norad_cat_id": 66909,
        "meta_element_set_no": 999,
        "meta_rev_at_epoch": 116,
        "meta_bstar": 0.00154,
        "meta_mean_motion_dot": 0.00091886,
        "meta_mean_motion_ddot": 0,
        "tle_line1": "1 66909U 98067XV  25343.82707981  .00091886  00000+0  15400-2 0  9992",
        "tle_line2": "2 66909  51.6304 156.8402 0004877 210.6195 149.4510 15.51056405  1161"
      },
      "geometry": {
        "type": "Point",
        "coordinates": [
          -173.70246709603106,
          34.05371359723144
        ]
      }
    },
    {
      "type": "Feature",
      "properties": {
        "norad_id": 66910,
        "name": "1998-067XW",
        "group": "last-30-days",
        "lat": 38.55215464977598,
        "lon": -166.94067740738382,
        "alt_km": 410.77292693365507,
        "timestamp": "2025-12-10T09:57:43.490562+00:00",
        "meta_object_name": "1998-067XW",
        "meta_object_id": "1998-067XW",
        "meta_epoch": "2025-12-09T18:16:30.088704",
        "meta_mean_motion": 15.51233501,
        "meta_eccentricity": 0.0005725,
        "meta_inclination": 51.6303,
        "meta_ra_of_asc_node": 157.1524,
        "meta_arg_of_pericenter": 193.6821,
        "meta_mean_anomaly": 166.4014,
        "meta_ephemeris_type": 0,
        "meta_classification_type": "U",
        "meta_norad_cat_id": 66910,
        "meta_element_set_no": 999,
        "meta_rev_at_epoch": 115,
        "meta_bstar": 0.0012863,
        "meta_mean_motion_dot": 0.00077029,
        "meta_mean_motion_ddot": 0,
        "tle_line1": "1 66910U 98067XW  25343.76145936  .00077029  00000+0  12863-2 0  9996",
        "tle_line2": "2 66910  51.6303 157.1524 0005725 193.6821 166.4014 15.51233501  1151"
      },
      "geometry": {
        "type": "Point",
        "coordinates": [
          -166.94067740738382,
          38.55215464977598
        ]
      }
    }
  ]
}